start=new Date('2022-08-14T00:00:00.000Z').valueOf();
sats=[{"EPOCH":"2022-08-13T22:00:00.999936","BSTAR":"-0.00073217000000","REV_AT_EPOCH":"130","INCLINATION":"53.2186","OBJECT_TYPE":"PAYLOAD","PERIAPSIS":"538.586","TIME_SYSTEM":"UTC","OBJECT_ID":"2022-029AZ","MEAN_MOTION_DOT":"-0.00011916","CLASSIFICATION_TYPE":"U","RCS_SIZE":"LARGE","COUNTRY_CODE":"US","SITE":"AFETR","TLE_LINE1":"1 52135U 22029AZ  22225.91667824 -.00011916  00000-0 -73217-3 0  9990","MEAN_MOTION":"15.08821015","PERIOD":"95.439","DECAY_DATE":null,"FILE":"3535825","ECCENTRICITY":"0.00017600","GP_ID":"210165203","MEAN_MOTION_DDOT":"0.0000000000000","EPHEMERIS_TYPE":"0","NORAD_CAT_ID":"52135","RA_OF_ASC_NODE":"161.9700","CENTER_NAME":"EARTH","OBJECT_NAME":"STARLINK-3729","SEMIMAJOR_AXIS":"6917.938","REF_FRAME":"TEME","TLE_LINE2":"2 52135  53.2186 161.9700 0001760  59.4343 284.6458 15.08821015  1301","APOAPSIS":"541.021","MEAN_ANOMALY":"284.6458","ARG_OF_PERICENTER":"59.4343","ELEMENT_SET_NO":"999","LAUNCH_DATE":"2022-03-19","MEAN_ELEMENT_THEORY":"SGP4"},{"RA_OF_ASC_NODE":"161.9702","CENTER_NAME":"EARTH","OBJECT_NAME":"STARLINK-3720","REF_FRAME":"TEME","TLE_LINE2":"2 52136  53.2177 161.9702 0001629  65.2943 238.8050 15.08823087  1309","SEMIMAJOR_AXIS":"6917.932","MEAN_ANOMALY":"238.8050","APOAPSIS":"540.924","ARG_OF_PERICENTER":"65.2943","ELEMENT_SET_NO":"999","LAUNCH_DATE":"2022-03-19","MEAN_ELEMENT_THEORY":"SGP4","DECAY_DATE":null,"ECCENTRICITY":"0.00016290","FILE":"3535825","GP_ID":"210165454","MEAN_MOTION_DDOT":"0.0000000000000","EPHEMERIS_TYPE":"0","NORAD_CAT_ID":"52136","PERIAPSIS":"538.670","TIME_SYSTEM":"UTC","OBJECT_ID":"2022-029BA","CLASSIFICATION_TYPE":"U","MEAN_MOTION_DOT":"-0.00011107","COUNTRY_CODE":"US","RCS_SIZE":"LARGE","SITE":"AFETR","MEAN_MOTION":"15.08823087","TLE_LINE1":"1 52136U 22029BA  22225.91667824 -.00011107  00000-0 -68116-3 0  9995","PERIOD":"95.439","EPOCH":"2022-08-13T22:00:00.999936","BSTAR":"-0.00068116000000","REV_AT_EPOCH":"130","OBJECT_TYPE":"PAYLOAD","INCLINATION":"53.2177"},{"OBJECT_TYPE":"PAYLOAD","INCLINATION":"53.2185","BSTAR":"-0.00077649000000","EPOCH":"2022-08-13T22:00:00.999936","REV_AT_EPOCH":"130","SITE":"AFETR","COUNTRY_CODE":"US","RCS_SIZE":"LARGE","PERIOD":"95.438","MEAN_MOTION":"15.08832034","TLE_LINE1":"1 52137U 22029BB  22225.91667824 -.00012622  00000-0 -77649-3 0  9990","PERIAPSIS":"538.648","CLASSIFICATION_TYPE":"U","MEAN_MOTION_DOT":"-0.00012622","TIME_SYSTEM":"UTC","OBJECT_ID":"2022-029BB","NORAD_CAT_ID":"52137","ECCENTRICITY":"0.00016220","FILE":"3535825","DECAY_DATE":null,"EPHEMERIS_TYPE":"0","MEAN_MOTION_DDOT":"0.0000000000000","GP_ID":"210166205","LAUNCH_DATE":"2022-03-19","ELEMENT_SET_NO":"999","MEAN_ELEMENT_THEORY":"SGP4","CENTER_NAME":"EARTH","OBJECT_NAME":"STARLINK-3733","RA_OF_ASC_NODE":"161.9691","APOAPSIS":"540.892","MEAN_ANOMALY":"303.2040","ARG_OF_PERICENTER":"60.8845","TLE_LINE2":"2 52137  53.2185 161.9691 0001622  60.8845 303.2040 15.08832034  1309","REF_FRAME":"TEME","SEMIMAJOR_AXIS":"6917.905"},{"EPHEMERIS_TYPE":"0","MEAN_MOTION_DDOT":"0.0000000000000","GP_ID":"210164953","ECCENTRICITY":"0.00016280","FILE":"3535825","DECAY_DATE":null,"NORAD_CAT_ID":"52138","APOAPSIS":"540.939","ARG_OF_PERICENTER":"65.3580","MEAN_ANOMALY":"258.7570","REF_FRAME":"TEME","TLE_LINE2":"2 52138  53.2183 161.9706 0001628  65.3580 258.7570 15.08817870  1300","SEMIMAJOR_AXIS":"6917.948","CENTER_NAME":"EARTH","OBJECT_NAME":"STARLINK-3723","RA_OF_ASC_NODE":"161.9706","MEAN_ELEMENT_THEORY":"SGP4","LAUNCH_DATE":"2022-03-19","ELEMENT_SET_NO":"999","REV_AT_EPOCH":"130","BSTAR":"-0.00071644000000","EPOCH":"2022-08-13T22:00:00.999936","OBJECT_TYPE":"PAYLOAD","INCLINATION":"53.2183","CLASSIFICATION_TYPE":"U","MEAN_MOTION_DOT":"-0.00011665","OBJECT_ID":"2022-029BC","TIME_SYSTEM":"UTC","PERIAPSIS":"538.687","PERIOD":"95.439","MEAN_MOTION":"15.08817870","TLE_LINE1":"1 52138U 22029BC  22225.91667824 -.00011665  00000-0 -71644-3 0  9996","SITE":"AFETR","COUNTRY_CODE":"US","RCS_SIZE":"LARGE"},{"PERIAPSIS":"538.423","CLASSIFICATION_TYPE":"U","MEAN_MOTION_DOT":"-0.00005688","OBJECT_ID":"2022-029BD","TIME_SYSTEM":"UTC","SITE":"AFETR","COUNTRY_CODE":"US","RCS_SIZE":"LARGE","PERIOD":"95.439","MEAN_MOTION":"15.08821417","TLE_LINE1":"1 52139U 22029BD  22225.91667824 -.00005688  00000-0 -33971-3 0  9996","BSTAR":"-0.00033971000000","EPOCH":"2022-08-13T22:00:00.999936","REV_AT_EPOCH":"130","OBJECT_TYPE":"PAYLOAD","INCLINATION":"53.2161","OBJECT_NAME":"STARLINK-3730","CENTER_NAME":"EARTH","RA_OF_ASC_NODE":"171.9755","APOAPSIS":"541.182","MEAN_ANOMALY":"12.4921","ARG_OF_PERICENTER":"56.6061","TLE_LINE2":"2 52139  53.2161 171.9755 0001994  56.6061  12.4921 15.08821417  1302","REF_FRAME":"TEME","SEMIMAJOR_AXIS":"6917.937","LAUNCH_DATE":"2022-03-19","ELEMENT_SET_NO":"999","MEAN_ELEMENT_THEORY":"SGP4","ECCENTRICITY":"0.00019940","FILE":"3535825","DECAY_DATE":null,"EPHEMERIS_TYPE":"0","MEAN_MOTION_DDOT":"0.0000000000000","GP_ID":"210164703","NORAD_CAT_ID":"52139"},{"NORAD_CAT_ID":"52140","MEAN_MOTION_DDOT":"0.0000000000000","EPHEMERIS_TYPE":"0","GP_ID":"210165955","FILE":"3535825","ECCENTRICITY":"0.00017640","DECAY_DATE":null,"MEAN_ELEMENT_THEORY":"SGP4","LAUNCH_DATE":"2022-03-19","ELEMENT_SET_NO":"999","ARG_OF_PERICENTER":"67.4692","APOAPSIS":"540.959","MEAN_ANOMALY":"316.6191","SEMIMAJOR_AXIS":"6917.874","TLE_LINE2":"2 52140  53.2185 161.9700 0001764  67.4692 316.6191 15.08842069  1308","REF_FRAME":"TEME","CENTER_NAME":"EARTH","OBJECT_NAME":"STARLINK-3682","RA_OF_ASC_NODE":"161.9700","INCLINATION":"53.2185","OBJECT_TYPE":"PAYLOAD","REV_AT_EPOCH":"130","BSTAR":"-0.00080757000000","EPOCH":"2022-08-13T22:00:00.999936","PERIOD":"95.437","TLE_LINE1":"1 52140U 22029BE  22225.91667824 -.00013118  00000-0 -80757-3 0  9999","MEAN_MOTION":"15.08842069","SITE":"AFETR","RCS_SIZE":"LARGE","COUNTRY_CODE":"US","MEAN_MOTION_DOT":"-0.00013118","CLASSIFICATION_TYPE":"U","OBJECT_ID":"2022-029BE","TIME_SYSTEM":"UTC","PERIAPSIS":"538.519"},{"NORAD_CAT_ID":"52261","GP_ID":"210166480","EPHEMERIS_TYPE":"0","MEAN_MOTION_DDOT":"0.0000000000000","DECAY_DATE":null,"FILE":"3535825","ECCENTRICITY":"0.00024210","MEAN_ELEMENT_THEORY":"SGP4","ELEMENT_SET_NO":"999","LAUNCH_DATE":"2022-04-21","SEMIMAJOR_AXIS":"6917.932","REF_FRAME":"TEME","TLE_LINE2":"2 52261  53.2158 201.9757 0002421  51.3137 352.7450 15.08823099  1307","MEAN_ANOMALY":"352.7450","APOAPSIS":"541.472","ARG_OF_PERICENTER":"51.3137","RA_OF_ASC_NODE":"201.9757","CENTER_NAME":"EARTH","OBJECT_NAME":"STARLINK-3810","INCLINATION":"53.2158","OBJECT_TYPE":"PAYLOAD","REV_AT_EPOCH":"130","EPOCH":"2022-08-13T22:00:00.999936","BSTAR":"0.00175240000000","TLE_LINE1":"1 52261U 22041A   22225.91667824  .00027699  00000-0  17524-2 0  9995","MEAN_MOTION":"15.08823099","PERIOD":"95.439","RCS_SIZE":"LARGE","COUNTRY_CODE":"US","SITE":"AFETR","TIME_SYSTEM":"UTC","OBJECT_ID":"2022-041A","MEAN_MOTION_DOT":"0.00027699","CLASSIFICATION_TYPE":"U","PERIAPSIS":"538.122"},{"PERIAPSIS":"538.358","OBJECT_ID":"2022-041B","TIME_SYSTEM":"UTC","MEAN_MOTION_DOT":"0.00028738","CLASSIFICATION_TYPE":"U","RCS_SIZE":"LARGE","COUNTRY_CODE":"US","SITE":"AFETR","TLE_LINE1":"1 52262U 22041B   22225.91667824  .00028738  00000-0  18180-2 0  9990","MEAN_MOTION":"15.08806693","PERIOD":"95.440","EPOCH":"2022-08-13T22:00:00.999936","BSTAR":"0.00181800000000","REV_AT_EPOCH":"130","INCLINATION":"53.2146","OBJECT_TYPE":"PAYLOAD","RA_OF_ASC_NODE":"201.9754","CENTER_NAME":"EARTH","OBJECT_NAME":"STARLINK-3761","SEMIMAJOR_AXIS":"6917.982","REF_FRAME":"TEME","TLE_LINE2":"2 52262  53.2146 201.9754 0002152  51.5327 327.3820 15.08806693  1306","ARG_OF_PERICENTER":"51.5327","APOAPSIS":"541.336","MEAN_ANOMALY":"327.3820","ELEMENT_SET_NO":"999","LAUNCH_DATE":"2022-04-21","MEAN_ELEMENT_THEORY":"SGP4","DECAY_DATE":null,"FILE":"3535825","ECCENTRICITY":"0.00021520","GP_ID":"210166611","EPHEMERIS_TYPE":"0","MEAN_MOTION_DDOT":"0.0000000000000","NORAD_CAT_ID":"52262"},{"INCLINATION":"53.2154","OBJECT_TYPE":"PAYLOAD","REV_AT_EPOCH":"130","EPOCH":"2022-08-13T22:00:00.999936","BSTAR":"0.00004318000000","TLE_LINE1":"1 52263U 22041C   22225.91667824  .00000399  00000-0  43180-4 0  9994","MEAN_MOTION":"15.08842276","PERIOD":"95.437","RCS_SIZE":"LARGE","COUNTRY_CODE":"US","SITE":"AFETR","OBJECT_ID":"2022-041C","TIME_SYSTEM":"UTC","MEAN_MOTION_DOT":"0.00000399","CLASSIFICATION_TYPE":"U","PERIAPSIS":"538.267","NORAD_CAT_ID":"52263","GP_ID":"210166742","MEAN_MOTION_DDOT":"0.0000000000000","EPHEMERIS_TYPE":"0","DECAY_DATE":null,"FILE":"3535825","ECCENTRICITY":"0.00021270","MEAN_ELEMENT_THEORY":"SGP4","ELEMENT_SET_NO":"999","LAUNCH_DATE":"2022-04-21","SEMIMAJOR_AXIS":"6917.873","TLE_LINE2":"2 52263  53.2154 201.9758 0002127  51.0960 333.0195 15.08842276  1306","REF_FRAME":"TEME","APOAPSIS":"541.210","ARG_OF_PERICENTER":"51.0960","MEAN_ANOMALY":"333.0195","RA_OF_ASC_NODE":"201.9758","CENTER_NAME":"EARTH","OBJECT_NAME":"STARLINK-3786"},{"MEAN_ANOMALY":"7.0230","APOAPSIS":"541.456","ARG_OF_PERICENTER":"57.0793","SEMIMAJOR_AXIS":"6917.901","TLE_LINE2":"2 52264  53.2161 201.9764 0002443  57.0793   7.0230 15.08833262  1306","REF_FRAME":"TEME","OBJECT_NAME":"STARLINK-3795","CENTER_NAME":"EARTH","RA_OF_ASC_NODE":"201.9764","MEAN_ELEMENT_THEORY":"SGP4","LAUNCH_DATE":"2022-04-21","ELEMENT_SET_NO":"999","MEAN_MOTION_DDOT":"0.0000000000000","EPHEMERIS_TYPE":"0","GP_ID":"210167004","FILE":"3535825","ECCENTRICITY":"0.00024430","DECAY_DATE":null,"NORAD_CAT_ID":"52264","MEAN_MOTION_DOT":"0.00027558","CLASSIFICATION_TYPE":"U","OBJECT_ID":"2022-041D","TIME_SYSTEM":"UTC","PERIAPSIS":"538.076","PERIOD":"95.438","TLE_LINE1":"1 52264U 22041D   22225.91667824  .00027558  00000-0  17431-2 0  9999","MEAN_MOTION":"15.08833262","SITE":"AFETR","RCS_SIZE":"LARGE","COUNTRY_CODE":"US","REV_AT_EPOCH":"130","BSTAR":"0.00174310000000","EPOCH":"2022-08-13T22:00:00.999936","INCLINATION":"53.2161","OBJECT_TYPE":"PAYLOAD"}];
